[Satellite]
VERSION=1.1
NAME=ST5-B
NICKNAME=ST5-B
TLE1=1 28981U 06008B   11060.00183343  .00016415  16352-5  51936-3 0  6344
TLE2=2 28981 105.5784 109.5312 2270446 155.3566 217.5621 10.87706339192939
